     3.04           N: GNSS NAV DATA    G: GPS              RINEX VERSION / TYPE
sbf2rin-15.6.1                          20250308 003042 UTC PGM / RUN BY / DATE 
GPSA   2.7940E-08  0.0000E+00 -1.1921E-07  5.9605E-08       IONOSPHERIC CORR    
GPSB   1.3312E+05 -1.6384E+04 -1.9661E+05 -6.5536E+04       IONOSPHERIC CORR    
                                                            COMMENT             
                                                            COMMENT             
ABPO                                    MARKER NAME         COMMENT
33302M001                               MARKER NUMBER       COMMENT
  4097216.5539  4429119.1897 -2065771.1988                  COMMENT
This data is provided as a public service by NASA/JPL.      COMMENT
No warranty is expressed or implied regarding suitability   COMMENT
for use.  For further information, contact:                 COMMENT
ggnops at jpl dot nasa dot gov                              COMMENT
                                                            END OF HEADER       
G01 2025 03 07 00 00 00 1.598671078682E-04 2.091837814078E-11 0.000000000000E+00
     1.840000000000E+02-3.125000000000E-01 4.616978029953E-09-1.959773880951E+00
    -7.078051567078E-08 3.732362529263E-04 3.581866621971E-06 5.153737884521E+03
     4.320000000000E+05 7.450580596924E-09-2.912440538062E+00-6.332993507385E-08
     9.599733199534E-01 3.101250000000E+02-2.234887953768E-01-8.278559120931E-09
    -6.428839215530E-12 1.000000000000E+00 2.356000000000E+03 0.000000000000E+00
     2.000000000000E+00 0.000000000000E+00-1.396983861923E-09 9.520000000000E+02
     4.248180000000E+05 4.000000000000E+00
G02 2025 03 07 00 00 00-2.263290807605E-04 9.549694368616E-12 0.000000000000E+00
     3.600000000000E+01 1.375000000000E+01 4.559118477013E-09-8.124445782178E-01
     6.053596735001E-07 1.621806039475E-02 4.209578037262E-06 5.152874574661E+03
     4.320000000000E+05-1.732259988785E-07-3.076721981272E+00-1.024454832077E-07
     9.664059667790E-01 3.054687500000E+02-1.023545607126E+00-8.468209877789E-09
     1.575065607805E-10 1.000000000000E+00 2.356000000000E+03 0.000000000000E+00
     2.000000000000E+00 0.000000000000E+00-1.769512891769E-08 3.600000000000E+01
     4.248180000000E+05 4.000000000000E+00
G03 2025 03 07 00 00 00 6.726281717420E-04 4.547473508865E-12 0.000000000000E+00
     1.430000000000E+02-7.393750000000E+01 3.822659229101E-09 1.976568168798E+00
    -4.056841135025E-06 5.824920837767E-03 6.504356861115E-06 5.153570121765E+03
     4.320000000000E+05-6.519258022308E-08-1.936711021319E+00-1.266598701477E-07
     9.883686725167E-01 2.671562500000E+02 1.128265284321E+00-7.725678948395E-09
     1.071473202588E-11 1.000000000000E+00 2.356000000000E+03 0.000000000000E+00
     2.000000000000E+00 0.000000000000E+00 1.396983861923E-09 1.430000000000E+02
     4.251720000000E+05 4.000000000000E+00
G04 2025 03 07 00 00 00 5.366979166865E-04 5.343281372916E-12 0.000000000000E+00
     1.260000000000E+02-4.553125000000E+01 4.279106813403E-09-1.430613767171E+00
    -2.486631274223E-06 3.244257532060E-03 8.543953299522E-06 5.153652791977E+03
     4.320000000000E+05-5.774199962616E-08-8.607082966639E-01-1.192092895508E-07
     9.670863334047E-01 2.179375000000E+02-2.912993150977E+00-7.777109662120E-09
     2.375098932404E-10 1.000000000000E+00 2.356000000000E+03 0.000000000000E+00
     2.000000000000E+00 0.000000000000E+00-4.656612873077E-09 6.380000000000E+02
     4.248180000000E+05 4.000000000000E+00
G07 2025 03 07 00 00 00-1.540733501315E-05-1.136868377216E-12 0.000000000000E+00
     8.600000000000E+01-1.206250000000E+01 4.734482924503E-09 2.411195454026E+00
    -8.419156074524E-07 1.928349491209E-02 7.783994078636E-06 5.153736013412E+03
     4.320000000000E+05 8.568167686462E-08 1.502720276617E-01-3.110617399216E-07
     9.508385405504E-01 2.218750000000E+02-2.069912749454E+00-7.731750629877E-09
     1.535778257043E-11 1.000000000000E+00 2.356000000000E+03 0.000000000000E+00
     2.000000000000E+00 0.000000000000E+00-1.071020960808E-08 8.600000000000E+01
     4.248180000000E+05 4.000000000000E+00
G08 2025 03 07 00 00 00 4.915473982692E-04 6.366462912410E-12 0.000000000000E+00
     4.600000000000E+01 7.271875000000E+01 4.705195990299E-09-1.130063450559E+00
     3.816559910774E-06 1.053576252889E-02 5.984678864479E-06 5.153763191223E+03
     4.320000000000E+05 2.011656761169E-07 2.205325179411E+00-9.872019290924E-08
     9.486228092163E-01 2.530625000000E+02 4.348740838969E-01-8.187126740977E-09
     5.000208278745E-12 1.000000000000E+00 2.356000000000E+03 0.000000000000E+00
     2.000000000000E+00 6.300000000000E+01 4.656612873077E-09 4.600000000000E+01
     4.248180000000E+05 4.000000000000E+00
G10 2025 03 07 00 00 00-3.441134467721E-04-1.443822839065E-11 0.000000000000E+00
     3.300000000000E+01-7.509375000000E+01 4.009452724085E-09 8.791924860332E-01
    -3.794208168983E-06 1.010834623594E-02 5.710870027542E-06 5.153651523590E+03
     4.320000000000E+05-7.264316082001E-08-1.939227876785E+00 7.450580596924E-08
     9.879786629455E-01 2.874687500000E+02-2.309299833390E+00-7.972117784991E-09
    -9.786121916973E-11 1.000000000000E+00 2.356000000000E+03 0.000000000000E+00
     2.000000000000E+00 0.000000000000E+00 2.328306436539E-09 3.300000000000E+01
     4.248180000000E+05 4.000000000000E+00
G14 2025 03 07 00 00 00 6.099850870669E-04 6.366462912410E-12 0.000000000000E+00
     2.010000000000E+02 5.100000000000E+01 4.886274961537E-09 1.575130005093E+00
     2.637505531311E-06 5.419557448477E-03 8.283182978630E-06 5.153710411072E+03
     4.320000000000E+05 0.000000000000E+00 1.217586385292E+00 8.568167686462E-08
     9.438552279531E-01 2.098437500000E+02-2.854519866233E+00-8.111409301327E-09
    -2.735828243942E-10 1.000000000000E+00 2.356000000000E+03 0.000000000000E+00
     2.000000000000E+00 0.000000000000E+00-7.916241884232E-09 2.010000000000E+02
     4.288320000000E+05 4.000000000000E+00
G16 2025 03 07 00 00 00-3.708060830832E-05 9.094947017729E-12 0.000000000000E+00
     4.400000000000E+01 4.018750000000E+01 4.555189741937E-09-6.770044303520E-02
     2.281740307808E-06 1.452673051972E-02 8.750706911087E-06 5.153701877594E+03
     4.320000000000E+05 1.862645149231E-09 1.284025333586E+00 2.644956111908E-07
     9.598122980234E-01 2.125937500000E+02 8.801085082806E-01-8.154982544899E-09
    -1.821504444400E-10 1.000000000000E+00 2.356000000000E+03 0.000000000000E+00
     2.000000000000E+00 0.000000000000E+00-1.071020960808E-08 4.400000000000E+01
     4.248180000000E+05 4.000000000000E+00
G17 2025 03 06 23 59 44 3.918730653822E-04-1.932676241267E-11 0.000000000000E+00
     1.600000000000E+01 8.621875000000E+01 4.514830917973E-09-1.085139635530E+00
     4.516914486885E-06 1.312968565617E-02 6.604939699173E-06 5.153644575119E+03
     4.319840000000E+05-2.384185791016E-07 2.304464312749E+00 3.352761268616E-08
     9.644652201563E-01 2.621875000000E+02-1.226855143121E+00-8.238200296967E-09
     4.071598169835E-11 1.000000000000E+00 2.356000000000E+03 0.000000000000E+00
     2.000000000000E+00 0.000000000000E+00-1.071020960808E-08 1.600000000000E+01
     4.316580000000E+05 4.000000000000E+00
G21 2025 03 07 00 00 00 9.952858090401E-05-1.591615728103E-12 0.000000000000E+00
     7.800000000000E+01 7.843750000000E+00 4.668051585943E-09-1.164453406924E+00
     1.881271600723E-07 2.575393288862E-02 4.060566425323E-06 5.152810756683E+03
     4.320000000000E+05-1.173466444016E-07-3.085586144237E+00-3.352761268616E-07
     9.606263768245E-01 3.042812500000E+02-4.255225570882E-01-8.486067764499E-09
     3.489431063096E-10 1.000000000000E+00 2.356000000000E+03 0.000000000000E+00
     2.000000000000E+00 6.300000000000E+01-1.024454832077E-08 7.800000000000E+01
     4.248180000000E+05 4.000000000000E+00
G22 2025 03 07 00 00 00-9.929947555065E-05-1.250555214938E-12 0.000000000000E+00
     4.800000000000E+01 5.040625000000E+01 4.599120143243E-09-5.779363333909E-01
     2.510845661163E-06 1.325718685985E-02 8.437782526016E-06 5.153664550781E+03
     4.320000000000E+05-1.639127731323E-07 1.287337799975E+00-9.685754776001E-08
     9.591845584126E-01 2.198750000000E+02-1.065994632898E+00-8.120338244682E-09
    -1.153619481453E-10 1.000000000000E+00 2.356000000000E+03 0.000000000000E+00
     2.800000000000E+00 0.000000000000E+00-1.117587089539E-08 4.800000000000E+01
     4.319580000000E+05 4.000000000000E+00
G26 2025 03 07 00 00 00-1.217713579535E-04-1.796252036002E-11 0.000000000000E+00
     1.180000000000E+02 2.765625000000E+01 5.240575433859E-09 7.069168260376E-01
     1.559033989906E-06 9.881142643280E-03 8.324161171913E-06 5.153786722183E+03
     4.320000000000E+05-1.452863216400E-07 1.108927643173E+00 1.732259988785E-07
     9.294919910380E-01 2.027500000000E+02 6.219906016166E-01-8.351776456441E-09
    -3.146559638267E-10 1.000000000000E+00 2.356000000000E+03 0.000000000000E+00
     2.800000000000E+00 0.000000000000E+00 6.519258022308E-09 1.180000000000E+02
     4.248180000000E+05 4.000000000000E+00
G27 2025 03 07 00 00 00-3.025587648153E-05 6.821210263297E-13 0.000000000000E+00
     1.870000000000E+02 7.878125000000E+01 4.565190158494E-09-1.002227416280E+00
     4.379078745842E-06 1.345420337748E-02 6.185844540596E-06 5.153691457748E+03
     4.320000000000E+05 2.440065145493E-07 2.234238953569E+00 1.844018697739E-07
     9.577048021463E-01 2.579062500000E+02 8.277390546541E-01-8.162125699583E-09
    -3.678724662220E-11 1.000000000000E+00 2.356000000000E+03 0.000000000000E+00
     2.000000000000E+00 0.000000000000E+00 1.862645149231E-09 1.870000000000E+02
     4.248180000000E+05 4.000000000000E+00
